{"type": "FeatureCollection", "features": [ {"type": "Feature", "properties": {"norad_id": 58662, "name": "TIANMU-1 21", "group": "weather", "lat": 32.058506275730075, "lon": -64.66575003683747, "alt_km": 467.2333718899399, "timestamp": "2025-12-23T05:02:11.667258+00:00", "meta": {"OBJECT_NAME": "TIANMU-1 21", "OBJECT_ID": "2023-208C", "EPOCH": "2025-12-22T22:07:21.893952", "MEAN_MOTION": 15.31758134, "ECCENTRICITY": 0.00063365, "INCLINATION": 97.4381, "RA_OF_ASC_NODE": 110.3518, "ARG_OF_PERICENTER": 217.7591, "MEAN_ANOMALY": 142.3207, "EPHEMERIS_TYPE": 0, "CLASSIFICATION_TYPE": "U", "NORAD_CAT_ID": 58662, "ELEMENT_SET_NO": 999, "REV_AT_EPOCH": 11055, "BSTAR": 0.00038668893, "MEAN_MOTION_DOT": 0.00011791, "MEAN_MOTION_DDOT": 0}, "tle": {"line1": "1 58662U 23208C   25356.92178118  .00011791  00000+0  38669-3 0  9993", "line2": "2 58662  97.4381 110.3518 0006336 217.7591 142.3207 15.31758134110559"}}, "geometry": {"type": "Point", "coordinates": [-64.66575003683747, 32.058506275730075]}}, {"type": "Feature", "properties": {"norad_id": 58663, "name": "TIANMU-1 22", "group": "weather", "lat": -77.18106482599232, "lon": 143.3262145731062, "alt_km": 488.502406404692, "timestamp": "2025-12-23T05:02:11.667271+00:00", "meta": {"OBJECT_NAME": "TIANMU-1 22", "OBJECT_ID": "2023-208D", "EPOCH": "2025-12-22T23:05:47.655168", "MEAN_MOTION": 15.27767735, "ECCENTRICITY": 0.00028597, "INCLINATION": 97.4388, "RA_OF_ASC_NODE": 108.0347, "ARG_OF_PERICENTER": 233.7087, "MEAN_ANOMALY": 126.3888, "EPHEMERIS_TYPE": 0, "CLASSIFICATION_TYPE": "U", "NORAD_CAT_ID": 58663, "ELEMENT_SET_NO": 999, "REV_AT_EPOCH": 11039, "BSTAR": 0.00033365158, "MEAN_MOTION_DOT": 8.978e-05, "MEAN_MOTION_DDOT": 0}, "tle": {"line1": "1 58663U 23208D   25356.96235712  .00008978  00000+0  33365-3 0  9993", "line2": "2 58663  97.4388 108.0347 0002859 233.7087 126.3888 15.27767735110396"}}, "geometry": {"type": "Point", "coordinates": [143.3262145731062, -77.18106482599232]}}, {"type": "Feature", "properties": {"norad_id": 58700, "name": "TIANMU-1 15", "group": "weather", "lat": -69.49537752269156, "lon": -160.84254778743772, "alt_km": 496.47526891017696, "timestamp": "2025-12-23T05:02:11.667281+00:00", "meta": {"OBJECT_NAME": "TIANMU-1 15", "OBJECT_ID": "2024-004A", "EPOCH": "2025-12-22T23:02:45.000384", "MEAN_MOTION": 15.24534977, "ECCENTRICITY": 0.00059978, "INCLINATION": 97.4624, "RA_OF_ASC_NODE": 178.3913, "ARG_OF_PERICENTER": 246.6404, "MEAN_ANOMALY": 113.4202, "EPHEMERIS_TYPE": 0, "CLASSIFICATION_TYPE": "U", "NORAD_CAT_ID": 58700, "ELEMENT_SET_NO": 999, "REV_AT_EPOCH": 10890, "BSTAR": 0.00028838443, "MEAN_MOTION_DOT": 7.029e-05, "MEAN_MOTION_DDOT": 0}, "tle": {"line1": "1 58700U 24004A   25356.96024306  .00007029  00000+0  28838-3 0  9990", "line2": "2 58700  97.4624 178.3913 0005997 246.6404 113.4202 15.24534977108900"}}, "geometry": {"type": "Point", "coordinates": [-160.84254778743772, -69.49537752269156]}}, {"type": "Feature", "properties": {"norad_id": 58701, "name": "TIANMU-1 16", "group": "weather", "lat": 11.496683472523761, "lon": 176.49383741090452, "alt_km": 495.2111883599946, "timestamp": "2025-12-23T05:02:11.667291+00:00", "meta": {"OBJECT_NAME": "TIANMU-1 16", "OBJECT_ID": "2024-004B", "EPOCH": "2025-12-22T22:41:05.686080", "MEAN_MOTION": 15.2456149, "ECCENTRICITY": 0.00043587, "INCLINATION": 97.4564, "RA_OF_ASC_NODE": 177.7569, "ARG_OF_PERICENTER": 249.3516, "MEAN_ANOMALY": 110.7255, "EPHEMERIS_TYPE": 0, "CLASSIFICATION_TYPE": "U", "NORAD_CAT_ID": 58701, "ELEMENT_SET_NO": 999, "REV_AT_EPOCH": 10890, "BSTAR": 0.00028820415, "MEAN_MOTION_DOT": 7.028e-05, "MEAN_MOTION_DDOT": 0}, "tle": {"line1": "1 58701U 24004B   25356.94520470  .00007028  00000+0  28820-3 0  9992", "line2": "2 58701  97.4564 177.7569 0004358 249.3516 110.7255 15.24561490108906"}}, "geometry": {"type": "Point", "coordinates": [176.49383741090452, 11.496683472523761]}}, {"type": "Feature", "properties": {"norad_id": 58702, "name": "TIANMU-1 17", "group": "weather", "lat": 79.2112666979729, "lon": 41.87704928258091, "alt_km": 486.76813893641884, "timestamp": "2025-12-23T05:02:11.667301+00:00", "meta": {"OBJECT_NAME": "TIANMU-1 17", "OBJECT_ID": "2024-004C", "EPOCH": "2025-12-22T22:18:29.562912", "MEAN_MOTION": 15.24604498, "ECCENTRICITY": 0.00035412, "INCLINATION": 97.4597, "RA_OF_ASC_NODE": 178.1566, "ARG_OF_PERICENTER": 250.8299, "MEAN_ANOMALY": 109.2555, "EPHEMERIS_TYPE": 0, "CLASSIFICATION_TYPE": "U", "NORAD_CAT_ID": 58702, "ELEMENT_SET_NO": 999, "REV_AT_EPOCH": 10889, "BSTAR": 0.00030034457, "MEAN_MOTION_DOT": 7.337e-05, "MEAN_MOTION_DDOT": 0}, "tle": {"line1": "1 58702U 24004C   25356.92950883  .00007337  00000+0  30034-3 0  9999", "line2": "2 58702  97.4597 178.1566 0003541 250.8299 109.2555 15.24604498108893"}}, "geometry": {"type": "Point", "coordinates": [41.87704928258091, 79.2112666979729]}}, {"type": "Feature", "properties": {"norad_id": 58703, "name": "TIANMU-1 18", "group": "weather", "lat": -8.811817383905549, "lon": -2.530912417041371, "alt_km": 495.10860529792353, "timestamp": "2025-12-23T05:02:11.667311+00:00", "meta": {"OBJECT_NAME": "TIANMU-1 18", "OBJECT_ID": "2024-004D", "EPOCH": "2025-12-22T23:29:07.114848", "MEAN_MOTION": 15.2459028, "ECCENTRICITY": 0.000291, "INCLINATION": 97.4616, "RA_OF_ASC_NODE": 178.4029, "ARG_OF_PERICENTER": 247.4761, "MEAN_ANOMALY": 112.6169, "EPHEMERIS_TYPE": 0, "CLASSIFICATION_TYPE": "U", "NORAD_CAT_ID": 58703, "ELEMENT_SET_NO": 999, "REV_AT_EPOCH": 10890, "BSTAR": 0.00030065554, "MEAN_MOTION_DOT": 7.341e-05, "MEAN_MOTION_DDOT": 0}, "tle": {"line1": "1 58703U 24004D   25356.97855457  .00007341  00000+0  30066-3 0  9996", "line2": "2 58703  97.4616 178.4029 0002910 247.4761 112.6169 15.24590280108902"}}, "geometry": {"type": "Point", "coordinates": [-2.530912417041371, -8.811817383905549]}}, {"type": "Feature", "properties": {"norad_id": 58990, "name": "INSAT-3DS", "group": "weather", "lat": 0.006659712369395992, "lon": -110.35157626809607, "alt_km": 35781.633565823504, "timestamp": "2025-12-23T05:02:11.667322+00:00", "meta": {"OBJECT_NAME": "INSAT-3DS", "OBJECT_ID": "2024-033A", "EPOCH": "2025-12-22T22:06:55.502208", "MEAN_MOTION": 1.00271735, "ECCENTRICITY": 0.00011592, "INCLINATION": 0.0565, "RA_OF_ASC_NODE": 100.6756, "ARG_OF_PERICENTER": 173.2771, "MEAN_ANOMALY": 231.6064, "EPHEMERIS_TYPE": 0, "CLASSIFICATION_TYPE": "U", "NORAD_CAT_ID": 58990, "ELEMENT_SET_NO": 999, "REV_AT_EPOCH": 4530, "BSTAR": 0, "MEAN_MOTION_DOT": -1.35e-06, "MEAN_MOTION_DDOT": 0}, "tle": {"line1": "1 58990U 24033A   25356.92147572 -.00000135  00000+0  00000+0 0  9999", "line2": "2 58990   0.0565 100.6756 0001159 173.2771 231.6064  1.00271735 45308"}}, "geometry": {"type": "Point", "coordinates": [-110.35157626809607, 0.006659712369395992]}}, {"type": "Feature", "properties": {"norad_id": 59051, "name": "METEOR-M2 4", "group": "weather", "lat": 58.26439958012063, "lon": 148.25195265136313, "alt_km": 815.7668372043418, "timestamp": "2025-12-23T05:02:11.667375+00:00", "meta": {"OBJECT_NAME": "METEOR-M2 4", "OBJECT_ID": "2024-039A", "EPOCH": "2025-12-22T23:24:24.715584", "MEAN_MOTION": 14.22402782, "ECCENTRICITY": 0.00065055, "INCLINATION": 98.6781, "RA_OF_ASC_NODE": 313.7243, "ARG_OF_PERICENTER": 327.9423, "MEAN_ANOMALY": 32.1359, "EPHEMERIS_TYPE": 0, "CLASSIFICATION_TYPE": "U", "NORAD_CAT_ID": 59051, "ELEMENT_SET_NO": 999, "REV_AT_EPOCH": 9421, "BSTAR": 3.4571856e-05, "MEAN_MOTION_DOT": 3.3e-07, "MEAN_MOTION_DDOT": 0}, "tle": {"line1": "1 59051U 24039A   25356.97528606  .00000033  00000+0  34572-4 0  9992", "line2": "2 59051  98.6781 313.7243 0006505 327.9423  32.1359 14.22402782 94211"}}, "geometry": {"type": "Point", "coordinates": [148.25195265136313, 58.26439958012063]}}, {"type": "Feature", "properties": {"norad_id": 60133, "name": "GOES 19", "group": "weather", "lat": 0.0033245801969557644, "lon": 92.36933214376928, "alt_km": 35788.57850572431, "timestamp": "2025-12-23T05:02:11.667389+00:00", "meta": {"OBJECT_NAME": "GOES 19", "OBJECT_ID": "2024-119A", "EPOCH": "2025-12-22T21:21:59.804064", "MEAN_MOTION": 1.00272021, "ECCENTRICITY": 9.707e-05, "INCLINATION": 0.0098, "RA_OF_ASC_NODE": 264.6523, "ARG_OF_PERICENTER": 59.6972, "MEAN_ANOMALY": 12.6533, "EPHEMERIS_TYPE": 0, "CLASSIFICATION_TYPE": "U", "NORAD_CAT_ID": 60133, "ELEMENT_SET_NO": 999, "REV_AT_EPOCH": 519, "BSTAR": 0, "MEAN_MOTION_DOT": -2.27e-06, "MEAN_MOTION_DDOT": 0}, "tle": {"line1": "1 60133U 24119A   25356.89027551 -.00000227  00000+0  00000+0 0  9998", "line2": "2 60133   0.0098 264.6523 0000970  59.6972  12.6533  1.00272021  5194"}}, "geometry": {"type": "Point", "coordinates": [92.36933214376928, 0.0033245801969557644]}}, {"type": "Feature", "properties": {"norad_id": 65815, "name": "FENGYUN 3H", "group": "weather", "lat": -80.24447211916018, "lon": 54.14703053334098, "alt_km": 833.5175901465018, "timestamp": "2025-12-23T05:02:11.667402+00:00", "meta": {"OBJECT_NAME": "FENGYUN 3H", "OBJECT_ID": "2025-219A", "EPOCH": "2025-12-22T22:42:58.832928", "MEAN_MOTION": 14.19907269, "ECCENTRICITY": 7.768e-05, "INCLINATION": 98.6599, "RA_OF_ASC_NODE": 296.3158, "ARG_OF_PERICENTER": 106.8572, "MEAN_ANOMALY": 253.269, "EPHEMERIS_TYPE": 0, "CLASSIFICATION_TYPE": "U", "NORAD_CAT_ID": 65815, "ELEMENT_SET_NO": 999, "REV_AT_EPOCH": 1237, "BSTAR": 6.2033827e-05, "MEAN_MOTION_DOT": 8.8e-07, "MEAN_MOTION_DDOT": 0}, "tle": {"line1": "1 65815U 25219A   25356.94651427  .00000088  00000+0  62034-4 0  9997", "line2": "2 65815  98.6599 296.3158 0000776 106.8572 253.2690 14.19907269 12374"}}, "geometry": {"type": "Point", "coordinates": [54.14703053334098, -80.24447211916018]}}]}